[{"OBJECT_NAME":"STARLINK-11629 [DTC]","OBJECT_ID":"2025-039A","EPOCH":"2026-03-09T11:17:59.037216","MEAN_MOTION":15.70966208,"ECCENTRICITY":0.00025758,"INCLINATION":43.0001,"RA_OF_ASC_NODE":237.9328,"ARG_OF_PERICENTER":274.379,"MEAN_ANOMALY":85.6783,"EPHEMERIS_TYPE":0,"CLASSIFICATION_TYPE":"U","NORAD_CAT_ID":63104,"ELEMENT_SET_NO":999,"REV_AT_EPOCH":5958,"BSTAR":0.0021575767,"MEAN_MOTION_DOT":0.00287726,"MEAN_MOTION_DDOT":0},{"OBJECT_NAME":"CZ-6A DEB","OBJECT_ID":"2024-140AY","EPOCH":"2026-03-09T23:18:41.702400","MEAN_MOTION":15.62067616,"ECCENTRICITY":0.0034385,"INCLINATION":89.347,"RA_OF_ASC_NODE":305.7787,"ARG_OF_PERICENTER":51.1175,"MEAN_ANOMALY":309.3152,"EPHEMERIS_TYPE":0,"CLASSIFICATION_TYPE":"U","NORAD_CAT_ID":60647,"ELEMENT_SET_NO":999,"REV_AT_EPOCH":8292,"BSTAR":0.0060093898,"MEAN_MOTION_DOT":0.00575832,"MEAN_MOTION_DDOT":0}]
